start=new Date('2021-11-08T00:00:00.000Z').valueOf();
sats=[{"EPHEMERIS_TYPE":"0","ARG_OF_PERICENTER":"54.1806","LAUNCH_DATE":"2020-11-25","CLASSIFICATION_TYPE":"U","REF_FRAME":"TEME","SEMIMAJOR_AXIS":"6925.377","DECAY_DATE":null,"MEAN_ELEMENT_THEORY":"SGP4","TLE_LINE1":"1 47175U 20088BF  21311.81563095  .00000304  00000-0  39338-4 0  9994","SITE":"AFETR","ECCENTRICITY":"0.00015600","TLE_LINE2":"2 47175  53.0546 187.4045 0001560  54.1806 305.9328 15.06390809 53542","PERIAPSIS":"546.161","COUNTRY_CODE":"US","MEAN_MOTION":"15.06390809","RA_OF_ASC_NODE":"187.4045","NORAD_CAT_ID":"47175","GP_ID":"189215616","ELEMENT_SET_NO":"999","TIME_SYSTEM":"UTC","INCLINATION":"53.0546","OBJECT_NAME":"STARLINK-1895","FILE":"3207836","EPOCH":"2021-11-07T19:34:30.514080","BSTAR":"0.00003933800000","CENTER_NAME":"EARTH","MEAN_MOTION_DDOT":"0.0000000000000","MEAN_ANOMALY":"305.9328","OBJECT_TYPE":"PAYLOAD","APOAPSIS":"548.322","REV_AT_EPOCH":"5354","PERIOD":"95.593","OBJECT_ID":"2020-088BF","MEAN_MOTION_DOT":"0.00000304","RCS_SIZE":"LARGE"},{"OBJECT_ID":"2020-088BH","RCS_SIZE":"LARGE","MEAN_MOTION_DOT":"-0.00005180","REV_AT_EPOCH":"5334","PERIOD":"95.594","APOAPSIS":"548.205","OBJECT_TYPE":"PAYLOAD","MEAN_ANOMALY":"293.9172","BSTAR":"-0.00032939000000","EPOCH":"2021-11-07T09:38:44.478816","CENTER_NAME":"EARTH","MEAN_MOTION_DDOT":"0.0000000000000","FILE":"3207387","OBJECT_NAME":"STARLINK-1907","INCLINATION":"53.0517","NORAD_CAT_ID":"47177","RA_OF_ASC_NODE":"199.2790","TIME_SYSTEM":"UTC","GP_ID":"189182017","ELEMENT_SET_NO":"999","PERIAPSIS":"546.399","MEAN_MOTION":"15.06371206","COUNTRY_CODE":"US","TLE_LINE2":"2 47177  53.0517 199.2790 0001304  66.1953 293.9172 15.06371206 53343","ECCENTRICITY":"0.00013040","SITE":"AFETR","TLE_LINE1":"1 47177U 20088BH  21311.40190369 -.00005180  00000-0 -32939-3 0  9999","MEAN_ELEMENT_THEORY":"SGP4","SEMIMAJOR_AXIS":"6925.437","DECAY_DATE":null,"CLASSIFICATION_TYPE":"U","REF_FRAME":"TEME","ARG_OF_PERICENTER":"66.1953","EPHEMERIS_TYPE":"0","LAUNCH_DATE":"2020-11-25"},{"COUNTRY_CODE":"US","MEAN_MOTION":"15.05796540","PERIAPSIS":"544.054","TLE_LINE2":"2 47178  53.0558 207.8710 0007232 354.7672   5.3240 15.05796540 53248","INCLINATION":"53.0558","OBJECT_NAME":"STARLINK-1912","FILE":"3207836","GP_ID":"189216617","ELEMENT_SET_NO":"999","TIME_SYSTEM":"UTC","RA_OF_ASC_NODE":"207.8710","NORAD_CAT_ID":"47178","MEAN_ANOMALY":"5.3240","OBJECT_TYPE":"PAYLOAD","APOAPSIS":"554.073","MEAN_MOTION_DDOT":"0.0000000000000","CENTER_NAME":"EARTH","EPOCH":"2021-11-07T17:09:17.045568","BSTAR":"-0.00598480000000","MEAN_MOTION_DOT":"-0.00086979","RCS_SIZE":"LARGE","OBJECT_ID":"2020-088BJ","PERIOD":"95.630","REV_AT_EPOCH":"5324","REF_FRAME":"TEME","CLASSIFICATION_TYPE":"U","LAUNCH_DATE":"2020-11-25","ARG_OF_PERICENTER":"354.7672","EPHEMERIS_TYPE":"0","MEAN_ELEMENT_THEORY":"SGP4","DECAY_DATE":null,"SEMIMAJOR_AXIS":"6927.199","SITE":"AFETR","TLE_LINE1":"1 47178U 20088BJ  21311.71478062 -.00086979  00000-0 -59848-2 0  9995","ECCENTRICITY":"0.00072320"},{"ECCENTRICITY":"0.00016910","SITE":"AFETR","TLE_LINE1":"1 47179U 20088BK  21311.76863565  .00002377  00000-0  17845-3 0  9997","MEAN_ELEMENT_THEORY":"SGP4","SEMIMAJOR_AXIS":"6925.351","DECAY_DATE":null,"CLASSIFICATION_TYPE":"U","REF_FRAME":"TEME","EPHEMERIS_TYPE":"0","ARG_OF_PERICENTER":"68.1034","LAUNCH_DATE":"2020-11-25","OBJECT_ID":"2020-088BK","RCS_SIZE":"LARGE","MEAN_MOTION_DOT":"0.00002377","REV_AT_EPOCH":"5311","PERIOD":"95.592","MEAN_ANOMALY":"292.0134","OBJECT_TYPE":"PAYLOAD","APOAPSIS":"548.387","EPOCH":"2021-11-07T18:26:50.120160","BSTAR":"0.00017845000000","CENTER_NAME":"EARTH","MEAN_MOTION_DDOT":"0.0000000000000","OBJECT_NAME":"STARLINK-1913","FILE":"3207836","INCLINATION":"53.0528","NORAD_CAT_ID":"47179","RA_OF_ASC_NODE":"217.6266","TIME_SYSTEM":"UTC","GP_ID":"189216862","ELEMENT_SET_NO":"999","PERIAPSIS":"546.044","MEAN_MOTION":"15.06399358","COUNTRY_CODE":"US","TLE_LINE2":"2 47179  53.0528 217.6266 0001691  68.1034 292.0134 15.06399358 53112"},{"OBJECT_ID":"2020-088BM","RCS_SIZE":"LARGE","MEAN_MOTION_DOT":"-0.00009419","REV_AT_EPOCH":"5368","PERIOD":"95.595","MEAN_ANOMALY":"276.1532","OBJECT_TYPE":"PAYLOAD","APOAPSIS":"548.542","EPOCH":"2021-11-07T01:52:58.571616","BSTAR":"-0.00061502000000","CENTER_NAME":"EARTH","MEAN_MOTION_DDOT":"0.0000000000000","OBJECT_NAME":"STARLINK-1927","FILE":"3207680","INCLINATION":"53.0531","NORAD_CAT_ID":"47181","RA_OF_ASC_NODE":"190.7226","TIME_SYSTEM":"UTC","ELEMENT_SET_NO":"999","GP_ID":"189190956","PERIAPSIS":"546.165","MEAN_MOTION":"15.06354243","COUNTRY_CODE":"US","TLE_LINE2":"2 47181  53.0531 190.7226 0001716  83.9652 276.1532 15.06354243 53686","ECCENTRICITY":"0.00017160","SITE":"AFETR","TLE_LINE1":"1 47181U 20088BM  21311.07845569 -.00009419  00000-0 -61502-3 0  9993","MEAN_ELEMENT_THEORY":"SGP4","SEMIMAJOR_AXIS":"6925.489","DECAY_DATE":null,"CLASSIFICATION_TYPE":"U","REF_FRAME":"TEME","EPHEMERIS_TYPE":"0","ARG_OF_PERICENTER":"83.9652","LAUNCH_DATE":"2020-11-25"},{"OBJECT_NAME":"STARLINK-1952","FILE":"3207836","INCLINATION":"53.0502","TIME_SYSTEM":"UTC","ELEMENT_SET_NO":"999","GP_ID":"189215134","NORAD_CAT_ID":"47349","RA_OF_ASC_NODE":"302.0585","MEAN_MOTION":"15.71545031","COUNTRY_CODE":"US","PERIAPSIS":"352.172","TLE_LINE2":"2 47349  53.0502 302.0585 0003432  11.6628 348.4468 15.71545031 44819","RCS_SIZE":"LARGE","MEAN_MOTION_DOT":"0.00036996","OBJECT_ID":"2021-005A","PERIOD":"91.630","REV_AT_EPOCH":"4481","OBJECT_TYPE":"PAYLOAD","MEAN_ANOMALY":"348.4468","APOAPSIS":"356.793","CENTER_NAME":"EARTH","MEAN_MOTION_DDOT":"0.0000000000000","EPOCH":"2021-11-07T16:26:21.492672","BSTAR":"0.00028608000000","MEAN_ELEMENT_THEORY":"SGP4","DECAY_DATE":null,"SEMIMAJOR_AXIS":"6732.618","REF_FRAME":"TEME","CLASSIFICATION_TYPE":"U","LAUNCH_DATE":"2021-01-20","EPHEMERIS_TYPE":"0","ARG_OF_PERICENTER":"11.6628","ECCENTRICITY":"0.00034320","SITE":"AFETR","TLE_LINE1":"1 47349U 21005A   21311.68497098  .00036996  00000-0  28608-3 0  9994"},{"MEAN_MOTION":"15.06393308","COUNTRY_CODE":"US","PERIAPSIS":"546.232","TLE_LINE2":"2 47350  53.0461 327.6233 0001447  72.2397 287.8749 15.06393308 44463","OBJECT_NAME":"STARLINK-2011","FILE":"3207836","INCLINATION":"53.0461","TIME_SYSTEM":"UTC","GP_ID":"189215384","ELEMENT_SET_NO":"999","NORAD_CAT_ID":"47350","RA_OF_ASC_NODE":"327.6233","MEAN_ANOMALY":"287.8749","OBJECT_TYPE":"PAYLOAD","APOAPSIS":"548.236","MEAN_MOTION_DDOT":"0.0000000000000","CENTER_NAME":"EARTH","EPOCH":"2021-11-07T18:44:06.124416","BSTAR":"0.00085304000000","RCS_SIZE":"LARGE","MEAN_MOTION_DOT":"0.00012445","OBJECT_ID":"2021-005B","PERIOD":"95.593","REV_AT_EPOCH":"4446","REF_FRAME":"TEME","CLASSIFICATION_TYPE":"U","LAUNCH_DATE":"2021-01-20","EPHEMERIS_TYPE":"0","ARG_OF_PERICENTER":"72.2397","MEAN_ELEMENT_THEORY":"SGP4","DECAY_DATE":null,"SEMIMAJOR_AXIS":"6925.369","SITE":"AFETR","TLE_LINE1":"1 47350U 21005B   21311.78062644  .00012445  00000-0  85304-3 0  9991","ECCENTRICITY":"0.00014470"},{"TLE_LINE1":"1 47351U 21005C   21311.41203754 -.00002719  00000-0 -16376-3 0  9999","SITE":"AFETR","ECCENTRICITY":"0.00016670","LAUNCH_DATE":"2021-01-20","EPHEMERIS_TYPE":"0","ARG_OF_PERICENTER":"63.3774","REF_FRAME":"TEME","CLASSIFICATION_TYPE":"U","DECAY_DATE":null,"SEMIMAJOR_AXIS":"6925.401","MEAN_ELEMENT_THEORY":"SGP4","CENTER_NAME":"EARTH","MEAN_MOTION_DDOT":"0.0000000000000","EPOCH":"2021-11-07T09:53:20.043456","BSTAR":"-0.00016376000000","OBJECT_TYPE":"PAYLOAD","MEAN_ANOMALY":"296.7385","APOAPSIS":"548.421","PERIOD":"95.593","REV_AT_EPOCH":"4496","RCS_SIZE":"LARGE","MEAN_MOTION_DOT":"-0.00002719","OBJECT_ID":"2021-005C","TLE_LINE2":"2 47351  53.0523 289.2211 0001667  63.3774 296.7385 15.06382740 44964","MEAN_MOTION":"15.06382740","COUNTRY_CODE":"US","PERIAPSIS":"546.112","TIME_SYSTEM":"UTC","GP_ID":"189182286","ELEMENT_SET_NO":"999","NORAD_CAT_ID":"47351","RA_OF_ASC_NODE":"289.2211","FILE":"3207387","OBJECT_NAME":"STARLINK-2017","INCLINATION":"53.0523"},{"CENTER_NAME":"EARTH","MEAN_MOTION_DDOT":"0.0000000000000","EPOCH":"2021-11-07T18:17:34.708992","BSTAR":"0.00031026000000","OBJECT_TYPE":"PAYLOAD","MEAN_ANOMALY":"273.1668","APOAPSIS":"547.993","PERIOD":"95.593","REV_AT_EPOCH":"4445","MEAN_MOTION_DOT":"0.00004341","RCS_SIZE":"LARGE","OBJECT_ID":"2021-005D","TLE_LINE2":"2 47352  53.0549 327.6528 0001074  86.9444 273.1668 15.06388299 44450","COUNTRY_CODE":"US","MEAN_MOTION":"15.06388299","PERIAPSIS":"546.506","ELEMENT_SET_NO":"999","GP_ID":"189216380","TIME_SYSTEM":"UTC","RA_OF_ASC_NODE":"327.6528","NORAD_CAT_ID":"47352","INCLINATION":"53.0549","FILE":"3207836","OBJECT_NAME":"STARLINK-2034","TLE_LINE1":"1 47352U 21005D   21311.76220728  .00004341  00000-0  31026-3 0  9998","SITE":"AFETR","ECCENTRICITY":"0.00010740","LAUNCH_DATE":"2021-01-20","ARG_OF_PERICENTER":"86.9444","EPHEMERIS_TYPE":"0","REF_FRAME":"TEME","CLASSIFICATION_TYPE":"U","DECAY_DATE":null,"SEMIMAJOR_AXIS":"6925.384","MEAN_ELEMENT_THEORY":"SGP4"},{"MEAN_MOTION":"15.06373882","COUNTRY_CODE":"US","PERIAPSIS":"546.269","TLE_LINE2":"2 47353  53.0551 273.7379 0001480  88.3258 271.7901 15.06373882 45197","FILE":"3207387","OBJECT_NAME":"STARLINK-2045","INCLINATION":"53.0551","TIME_SYSTEM":"UTC","ELEMENT_SET_NO":"999","GP_ID":"189181784","NORAD_CAT_ID":"47353","RA_OF_ASC_NODE":"273.7379","OBJECT_TYPE":"PAYLOAD","APOAPSIS":"548.319","MEAN_ANOMALY":"271.7901","MEAN_MOTION_DDOT":"0.0000000000000","CENTER_NAME":"EARTH","EPOCH":"2021-11-07T12:26:36.392064","BSTAR":"0.00014363000000","RCS_SIZE":"LARGE","MEAN_MOTION_DOT":"0.00001857","OBJECT_ID":"2021-005E","PERIOD":"95.594","REV_AT_EPOCH":"4519","REF_FRAME":"TEME","CLASSIFICATION_TYPE":"U","LAUNCH_DATE":"2021-01-20","ARG_OF_PERICENTER":"88.3258","EPHEMERIS_TYPE":"0","MEAN_ELEMENT_THEORY":"SGP4","DECAY_DATE":null,"SEMIMAJOR_AXIS":"6925.429","SITE":"AFETR","TLE_LINE1":"1 47353U 21005E   21311.51847676  .00001857  00000-0  14363-3 0  9993","ECCENTRICITY":"0.00014800"}];
